start=new Date('2022-08-29T00:00:00.000Z').valueOf();
sats=[{"EPOCH":"2022-08-28T21:28:54.037632","ARG_OF_PERICENTER":"90.5922","DECAY_DATE":null,"SITE":"AFETR","RCS_SIZE":"LARGE","PERIOD":"95.592","OBJECT_NAME":"STARLINK-1536","CLASSIFICATION_TYPE":"U","REF_FRAME":"TEME","LAUNCH_DATE":"2020-08-07","INCLINATION":"53.0549","OBJECT_ID":"2020-055AV","NORAD_CAT_ID":"46070","REV_AT_EPOCH":"11506","PERIAPSIS":"546.103","FILE":"3550014","MEAN_MOTION":"15.06403669","TIME_SYSTEM":"UTC","EPHEMERIS_TYPE":"0","RA_OF_ASC_NODE":"122.2506","MEAN_ELEMENT_THEORY":"SGP4","BSTAR":"0.00010171000000","MEAN_ANOMALY":"269.5248","CENTER_NAME":"EARTH","TLE_LINE1":"1 46070U 20055AV  22240.89506988  .00001234  00000-0  10171-3 0  9995","APOAPSIS":"548.301","SEMIMAJOR_AXIS":"6925.337","MEAN_MOTION_DOT":"0.00001234","ECCENTRICITY":"0.00015870","GP_ID":"211210002","ELEMENT_SET_NO":"999","TLE_LINE2":"2 46070  53.0549 122.2506 0001587  90.5922 269.5248 15.06403669115060","OBJECT_TYPE":"PAYLOAD","COUNTRY_CODE":"US","MEAN_MOTION_DDOT":"0.0000000000000"},{"ELEMENT_SET_NO":"999","TLE_LINE2":"2 46071  53.0555 122.4543 0001972  72.4014 287.7190 15.06402361114515","OBJECT_TYPE":"PAYLOAD","COUNTRY_CODE":"US","MEAN_MOTION_DDOT":"0.0000000000000","SEMIMAJOR_AXIS":"6925.341","MEAN_MOTION_DOT":"0.00001010","ECCENTRICITY":"0.00019720","GP_ID":"211185054","MEAN_ANOMALY":"287.7190","CENTER_NAME":"EARTH","APOAPSIS":"548.572","TLE_LINE1":"1 46071U 20055AW  22240.84715881  .00001010  00000-0  86733-4 0  9995","FILE":"3549796","PERIAPSIS":"545.841","MEAN_MOTION":"15.06402361","EPHEMERIS_TYPE":"0","TIME_SYSTEM":"UTC","RA_OF_ASC_NODE":"122.4543","MEAN_ELEMENT_THEORY":"SGP4","BSTAR":"0.00008673300000","INCLINATION":"53.0555","OBJECT_ID":"2020-055AW","NORAD_CAT_ID":"46071","REV_AT_EPOCH":"11451","REF_FRAME":"TEME","LAUNCH_DATE":"2020-08-07","OBJECT_NAME":"STARLINK-1538","CLASSIFICATION_TYPE":"U","EPOCH":"2022-08-28T20:19:54.521184","ARG_OF_PERICENTER":"72.4014","DECAY_DATE":null,"SITE":"AFETR","RCS_SIZE":"LARGE","PERIOD":"95.592"},{"DECAY_DATE":null,"ARG_OF_PERICENTER":"77.6563","EPOCH":"2022-08-28T20:55:41.760768","PERIOD":"95.592","RCS_SIZE":"LARGE","SITE":"AFETR","CLASSIFICATION_TYPE":"U","OBJECT_NAME":"STARLINK-1539","REF_FRAME":"TEME","LAUNCH_DATE":"2020-08-07","OBJECT_ID":"2020-055AX","INCLINATION":"53.0547","REV_AT_EPOCH":"11504","NORAD_CAT_ID":"46072","FILE":"3550014","PERIAPSIS":"546.212","BSTAR":"0.00006776100000","MEAN_ELEMENT_THEORY":"SGP4","RA_OF_ASC_NODE":"122.3599","EPHEMERIS_TYPE":"0","TIME_SYSTEM":"UTC","MEAN_MOTION":"15.06403745","MEAN_ANOMALY":"282.4586","TLE_LINE1":"1 46072U 20055AX  22240.87201112  .00000728  00000-0  67761-4 0  9991","APOAPSIS":"548.192","CENTER_NAME":"EARTH","ECCENTRICITY":"0.00014300","MEAN_MOTION_DOT":"0.00000728","SEMIMAJOR_AXIS":"6925.337","GP_ID":"211209002","ELEMENT_SET_NO":"999","MEAN_MOTION_DDOT":"0.0000000000000","COUNTRY_CODE":"US","OBJECT_TYPE":"PAYLOAD","TLE_LINE2":"2 46072  53.0547 122.3599 0001430  77.6563 282.4586 15.06403745115049"},{"FILE":"3550014","PERIAPSIS":"546.079","MEAN_MOTION":"15.06404963","TIME_SYSTEM":"UTC","EPHEMERIS_TYPE":"0","RA_OF_ASC_NODE":"122.2839","MEAN_ELEMENT_THEORY":"SGP4","BSTAR":"-0.00001697300000","MEAN_ANOMALY":"292.2315","CENTER_NAME":"EARTH","APOAPSIS":"548.317","TLE_LINE1":"1 46073U 20055AY  22240.88769721 -.00000534  00000-0 -16973-4 0  9994","SEMIMAJOR_AXIS":"6925.333","MEAN_MOTION_DOT":"-0.00000534","ECCENTRICITY":"0.00016160","GP_ID":"211209252","ELEMENT_SET_NO":"999","TLE_LINE2":"2 46073  53.0537 122.2839 0001616  67.8845 292.2315 15.06404963115058","COUNTRY_CODE":"US","OBJECT_TYPE":"PAYLOAD","MEAN_MOTION_DDOT":"0.0000000000000","EPOCH":"2022-08-28T21:18:17.038944","ARG_OF_PERICENTER":"67.8845","DECAY_DATE":null,"SITE":"AFETR","RCS_SIZE":"LARGE","PERIOD":"95.592","OBJECT_NAME":"STARLINK-1542","CLASSIFICATION_TYPE":"U","REF_FRAME":"TEME","LAUNCH_DATE":"2020-08-07","INCLINATION":"53.0537","OBJECT_ID":"2020-055AY","NORAD_CAT_ID":"46073","REV_AT_EPOCH":"11505"},{"MEAN_MOTION_DOT":"0.00000984","SEMIMAJOR_AXIS":"6925.332","ECCENTRICITY":"0.00015630","GP_ID":"211210502","ELEMENT_SET_NO":"999","TLE_LINE2":"2 46074  53.0545 122.3348 0001563  73.8965 286.2196 15.06405496115046","MEAN_MOTION_DDOT":"0.0000000000000","COUNTRY_CODE":"US","OBJECT_TYPE":"PAYLOAD","FILE":"3550014","PERIAPSIS":"546.114","TIME_SYSTEM":"UTC","EPHEMERIS_TYPE":"0","MEAN_MOTION":"15.06405496","MEAN_ELEMENT_THEORY":"SGP4","BSTAR":"0.00008490600000","RA_OF_ASC_NODE":"122.3348","MEAN_ANOMALY":"286.2196","CENTER_NAME":"EARTH","TLE_LINE1":"1 46074U 20055AZ  22240.87295278  .00000984  00000-0  84906-4 0  9993","APOAPSIS":"548.279","REF_FRAME":"TEME","LAUNCH_DATE":"2020-08-07","INCLINATION":"53.0545","OBJECT_ID":"2020-055AZ","REV_AT_EPOCH":"11504","NORAD_CAT_ID":"46074","ARG_OF_PERICENTER":"73.8965","EPOCH":"2022-08-28T20:57:03.120192","DECAY_DATE":null,"SITE":"AFETR","PERIOD":"95.592","RCS_SIZE":"LARGE","OBJECT_NAME":"STARLINK-1549","CLASSIFICATION_TYPE":"U"},{"RCS_SIZE":"LARGE","PERIOD":"95.592","SITE":"AFETR","DECAY_DATE":null,"EPOCH":"2022-08-28T21:34:12.800928","ARG_OF_PERICENTER":"73.5626","CLASSIFICATION_TYPE":"U","OBJECT_NAME":"STARLINK-1551","LAUNCH_DATE":"2020-08-07","REF_FRAME":"TEME","NORAD_CAT_ID":"46075","REV_AT_EPOCH":"11505","OBJECT_ID":"2020-055BA","INCLINATION":"53.0567","RA_OF_ASC_NODE":"122.2171","MEAN_ELEMENT_THEORY":"SGP4","BSTAR":"0.00006497200000","MEAN_MOTION":"15.06398421","TIME_SYSTEM":"UTC","EPHEMERIS_TYPE":"0","FILE":"3550014","PERIAPSIS":"546.108","TLE_LINE1":"1 46075U 20055BA  22240.89875927  .00000686  00000-0  64972-4 0  9991","APOAPSIS":"548.329","CENTER_NAME":"EARTH","MEAN_ANOMALY":"286.5539","GP_ID":"211210749","ECCENTRICITY":"0.00016030","SEMIMAJOR_AXIS":"6925.353","MEAN_MOTION_DOT":"0.00000686","COUNTRY_CODE":"US","OBJECT_TYPE":"PAYLOAD","MEAN_MOTION_DDOT":"0.0000000000000","TLE_LINE2":"2 46075  53.0567 122.2171 0001603  73.5626 286.5539 15.06398421115054","ELEMENT_SET_NO":"999"},{"REF_FRAME":"TEME","LAUNCH_DATE":"2020-08-07","OBJECT_ID":"2020-055BB","INCLINATION":"53.0539","REV_AT_EPOCH":"11503","NORAD_CAT_ID":"46076","DECAY_DATE":null,"ARG_OF_PERICENTER":"62.6216","EPOCH":"2022-08-28T20:35:49.586784","PERIOD":"95.591","RCS_SIZE":"LARGE","SITE":"AFETR","CLASSIFICATION_TYPE":"U","OBJECT_NAME":"STARLINK-1552","ECCENTRICITY":"0.00018550","MEAN_MOTION_DOT":"0.00006944","SEMIMAJOR_AXIS":"6925.307","GP_ID":"211209502","ELEMENT_SET_NO":"999","MEAN_MOTION_DDOT":"0.0000000000000","OBJECT_TYPE":"PAYLOAD","COUNTRY_CODE":"US","TLE_LINE2":"2 46076  53.0539 122.4203 0001855  62.6216 297.4961 15.06413399115035","FILE":"3550014","PERIAPSIS":"545.888","MEAN_ELEMENT_THEORY":"SGP4","BSTAR":"0.00048442000000","RA_OF_ASC_NODE":"122.4203","TIME_SYSTEM":"UTC","EPHEMERIS_TYPE":"0","MEAN_MOTION":"15.06413399","MEAN_ANOMALY":"297.4961","APOAPSIS":"548.457","TLE_LINE1":"1 46076U 20055BB  22240.85821281  .00006944  00000-0  48442-3 0  9998","CENTER_NAME":"EARTH"},{"NORAD_CAT_ID":"46077","REV_AT_EPOCH":"11451","INCLINATION":"53.0555","OBJECT_ID":"2020-055BC","LAUNCH_DATE":"2020-08-07","REF_FRAME":"TEME","OBJECT_NAME":"STARLINK-1559","CLASSIFICATION_TYPE":"U","SITE":"AFETR","RCS_SIZE":"LARGE","PERIOD":"95.593","EPOCH":"2022-08-28T20:09:18.008064","ARG_OF_PERICENTER":"97.0404","DECAY_DATE":null,"TLE_LINE2":"2 46077  53.0555 122.4964 0001920  97.0404 263.0804 15.06386145114517","COUNTRY_CODE":"US","OBJECT_TYPE":"PAYLOAD","MEAN_MOTION_DDOT":"0.0000000000000","ELEMENT_SET_NO":"999","GP_ID":"211184490","SEMIMAJOR_AXIS":"6925.391","MEAN_MOTION_DOT":"0.00003690","ECCENTRICITY":"0.00019200","CENTER_NAME":"EARTH","APOAPSIS":"548.586","TLE_LINE1":"1 46077U 20055BC  22240.83979176  .00003690  00000-0  26659-3 0  9995","MEAN_ANOMALY":"263.0804","MEAN_MOTION":"15.06386145","EPHEMERIS_TYPE":"0","TIME_SYSTEM":"UTC","RA_OF_ASC_NODE":"122.4964","MEAN_ELEMENT_THEORY":"SGP4","BSTAR":"0.00026659000000","FILE":"3549775","PERIAPSIS":"545.926"},{"INCLINATION":"53.0543","OBJECT_ID":"2020-055BD","REV_AT_EPOCH":"11502","NORAD_CAT_ID":"46078","REF_FRAME":"TEME","LAUNCH_DATE":"2020-08-07","OBJECT_NAME":"STARLINK-1563","CLASSIFICATION_TYPE":"U","ARG_OF_PERICENTER":"64.2238","EPOCH":"2022-08-28T21:12:58.185792","DECAY_DATE":null,"SITE":"AFETR","PERIOD":"95.592","RCS_SIZE":"LARGE","ELEMENT_SET_NO":"999","TLE_LINE2":"2 46078  53.0543 122.2952 0001848  64.2238 295.8941 15.06405490115027","MEAN_MOTION_DDOT":"0.0000000000000","COUNTRY_CODE":"US","OBJECT_TYPE":"PAYLOAD","MEAN_MOTION_DOT":"0.00000594","SEMIMAJOR_AXIS":"6925.332","ECCENTRICITY":"0.00018480","GP_ID":"211210003","MEAN_ANOMALY":"295.8941","CENTER_NAME":"EARTH","APOAPSIS":"548.477","TLE_LINE1":"1 46078U 20055BD  22240.88400678  .00000594  00000-0  58779-4 0  9996","PERIAPSIS":"545.917","FILE":"3550014","TIME_SYSTEM":"UTC","EPHEMERIS_TYPE":"0","MEAN_MOTION":"15.06405490","BSTAR":"0.00005877900000","MEAN_ELEMENT_THEORY":"SGP4","RA_OF_ASC_NODE":"122.2952"},{"NORAD_CAT_ID":"46079","REV_AT_EPOCH":"11505","INCLINATION":"53.0549","OBJECT_ID":"2020-055BE","LAUNCH_DATE":"2020-08-07","REF_FRAME":"TEME","OBJECT_NAME":"STARLINK-1566","CLASSIFICATION_TYPE":"U","SITE":"AFETR","RCS_SIZE":"LARGE","PERIOD":"95.592","EPOCH":"2022-08-28T21:02:21.721056","ARG_OF_PERICENTER":"89.8010","DECAY_DATE":null,"TLE_LINE2":"2 46079  53.0549 122.3257 0001529  89.8010 270.3154 15.06401802115050","OBJECT_TYPE":"PAYLOAD","COUNTRY_CODE":"US","MEAN_MOTION_DDOT":"0.0000000000000","ELEMENT_SET_NO":"999","GP_ID":"211210249","SEMIMAJOR_AXIS":"6925.343","MEAN_MOTION_DOT":"0.00001240","ECCENTRICITY":"0.00015290","CENTER_NAME":"EARTH","TLE_LINE1":"1 46079U 20055BE  22240.87664029  .00001240  00000-0  10212-3 0  9996","APOAPSIS":"548.267","MEAN_ANOMALY":"270.3154","MEAN_MOTION":"15.06401802","EPHEMERIS_TYPE":"0","TIME_SYSTEM":"UTC","RA_OF_ASC_NODE":"122.3257","BSTAR":"0.00010212000000","MEAN_ELEMENT_THEORY":"SGP4","PERIAPSIS":"546.149","FILE":"3550014"}];
